NORAD_CAT_ID,OBJECT_NAME,OBJECT_TYPE,EPOCH,MEAN_MOTION,ECCENTRICITY,INCLINATION,RA_OF_ASC_NODE,ARG_OF_PERICENTER,MEAN_ANOMALY,BSTAR,MEAN_MOTION_DOT,MEAN_MOTION_DDOT,TLE_LINE0,TLE_LINE1,TLE_LINE2,SEMIMAJOR_AXIS,PERIOD,APOGEE,PERIGEE,DECAYED
52138.0,STARLINK-3723,PAYLOAD,2023-04-17 19:12:05,15.08839607,0.0001519,53.2156,133.6805,76.9707,283.1455,1.2695e-05,-8.6e-07,0.0,0 STARLINK-3723,1 52138U 22029BC  23107.80006581 -.00000086  00000-0  12695-4 0  9997,2 52138  53.2156 133.6805 0001519  76.9707 283.1455 15.08839607 61384,6917.882,95.438,540.797,538.696,0.0
52138.0,STARLINK-3723,PAYLOAD,2023-04-18 07:55:10,15.08838482,0.0001481,53.2154,131.3015,74.9239,285.1917,7.8111e-05,9.55e-06,0.0,0 STARLINK-3723,1 52138U 22029BC  23108.32998542  .00000955  00000-0  78111-4 0  9991,2 52138  53.2154 131.3015 0001481  74.9239 285.1917 15.08838482 61460,6917.885,95.438,540.775,538.725,0.0
52138.0,STARLINK-3723,PAYLOAD,2023-04-18 19:02:52,15.08840712,0.0001481,53.2156,129.22,75.3019,284.8137,9.6695e-05,1.251e-05,0.0,0 STARLINK-3723,1 52138U 22029BC  23108.79366371  .00001251  00000-0  96695-4 0  9998,2 52138  53.2156 129.2200 0001481  75.3019 284.8137 15.08840712 61532,6917.878,95.438,540.768,538.719,0.0
52138.0,STARLINK-3723,PAYLOAD,2023-04-19 10:56:43,15.08842546,0.0001412,53.2152,126.2452,83.6072,276.5081,6.9884e-05,8.25e-06,0.0,0 STARLINK-3723,1 52138U 22029BC  23109.45606294  .00000825  00000-0  69884-4 0  9999,2 52138  53.2152 126.2452 0001412  83.6072 276.5081 15.08842546 61633,6917.873,95.437,540.714,538.761,0.0
52138.0,STARLINK-3723,PAYLOAD,2023-04-20 01:15:12,15.08822675,0.0001246,53.2146,123.5676,98.9316,261.1817,0.00019054,2.744e-05,0.0,0 STARLINK-3723,1 52138U 22029BC  23110.05223180  .00002744  00000-0  19054-3 0  9991,2 52138  53.2146 123.5676 0001246  98.9316 261.1817 15.08822675 61727,6917.933,95.439,540.66,538.936,0.0
52138.0,STARLINK-3723,PAYLOAD,2023-04-20 07:36:44,15.08837355,0.0001301,53.2148,122.3779,101.0943,259.0195,1.7991e-05,-2e-08,0.0,0 STARLINK-3723,1 52138U 22029BC  23110.31718732 -.00000002  00000-0  17991-4 0  9997,2 52138  53.2148 122.3779 0001301 101.0943 259.0195 15.08837355 61764,6917.888,95.438,540.653,538.853,0.0
52138.0,STARLINK-3723,PAYLOAD,2023-04-20 17:09:03,15.08836448,0.0001296,53.215,120.5939,100.5275,259.5863,2.9406e-06,-2.41e-06,0.0,0 STARLINK-3723,1 52138U 22029BC  23110.71462898 -.00000241  00000-0  29406-5 0  9990,2 52138  53.2150 120.5939 0001296 100.5275 259.5863 15.08836448 61826,6917.891,95.438,540.653,538.86,0.0
52138.0,STARLINK-3723,PAYLOAD,2023-04-21 07:27:32,15.0883503,0.0001288,53.2155,117.9201,92.0582,268.0557,2.0662e-05,4.1e-07,0.0,0 STARLINK-3723,1 52138U 22029BC  23111.31079147  .00000041  00000-0  20662-4 0  9999,2 52138  53.2155 117.9201 0001288  92.0582 268.0557 15.08835030 61911,6917.896,95.438,540.652,538.87,0.0
52138.0,STARLINK-3723,PAYLOAD,2023-04-21 16:59:51,15.08837714,0.0001275,53.2158,116.136,105.3958,254.7175,4.073e-06,-2.23e-06,0.0,0 STARLINK-3723,1 52138U 22029BC  23111.70823056 -.00000223  00000-0  40730-5 0  9990,2 52138  53.2158 116.1360 0001275 105.3958 254.7175 15.08837714 61977,6917.887,95.438,540.634,538.87,0.0
52138.0,STARLINK-3723,PAYLOAD,2023-04-22 00:56:46,15.08836858,0.00012,53.2158,114.6489,97.6845,262.4283,5.9276e-05,6.56e-06,0.0,0 STARLINK-3723,1 52138U 22029BC  23112.03943077  .00000656  00000-0  59276-4 0  9996,2 52138  53.2158 114.6489 0001200  97.6845 262.4283 15.08836858 62029,6917.89,95.438,540.585,538.925,0.0
52138.0,STARLINK-3723,PAYLOAD,2023-04-22 16:50:38,15.08837446,0.0001173,53.2159,111.6758,98.7883,261.3242,7.2256e-05,8.62e-06,0.0,0 STARLINK-3723,1 52138U 22029BC  23112.70183062  .00000862  00000-0  72256-4 0  9992,2 52138  53.2159 111.6758 0001173  98.7883 261.3242 15.08837446 62127,6917.888,95.438,540.565,538.942,0.0
52138.0,STARLINK-3723,PAYLOAD,2023-04-23 08:44:29,15.0883831,0.0001121,53.2158,108.7014,95.7735,264.3385,6.362e-05,7.25e-06,0.0,0 STARLINK-3723,1 52138U 22029BC  23113.36423135  .00000725  00000-0  63620-4 0  9996,2 52138  53.2158 108.7014 0001121  95.7735 264.3385 15.08838310 62227,6917.886,95.438,540.526,538.975,0.0
52138.0,STARLINK-3723,PAYLOAD,2023-04-24 08:35:15,15.08851965,0.0001186,53.2154,104.2408,93.1751,266.9377,0.0001058,1.397e-05,0.0,0 STARLINK-3723,1 52138U 22029BC  23114.35782069  .00001397  00000-0  10580-3 0  9992,2 52138  53.2154 104.2408 0001186  93.1751 266.9377 15.08851965 62378,6917.844,95.437,540.529,538.888,0.0
52138.0,STARLINK-3723,PAYLOAD,2023-04-25 05:15:16,15.08842733,0.0001296,53.2156,100.3738,86.8973,273.2167,5.8299e-05,6.4e-06,0.0,0 STARLINK-3723,1 52138U 22029BC  23115.21894478  .00000640  00000-0  58299-4 0  9996,2 52138  53.2156 100.3738 0001296  86.8973 273.2167 15.08842733 62506,6917.872,95.437,540.634,538.84,0.0
52138.0,STARLINK-3723,PAYLOAD,2023-04-25 08:26:02,15.08844816,0.0001255,53.2158,99.7777,91.066,269.0476,3.002e-05,1.9e-06,0.0,0 STARLINK-3723,1 52138U 22029BC  23115.35142356  .00000190  00000-0  30020-4 0  9994,2 52138  53.2158  99.7777 0001255  91.0660 269.0476 15.08844816 62520,6917.866,95.437,540.599,538.862,0.0
52138.0,STARLINK-3723,PAYLOAD,2023-04-26 08:16:51,15.08830299,0.0001166,53.2168,95.3175,94.3187,265.7939,-6.8904e-05,-1.384e-05,0.0,0 STARLINK-3723,1 52138U 22029BC  23116.34503771 -.00001384  00000-0 -68904-4 0  9996,2 52138  53.2168  95.3175 0001166  94.3187 265.7939 15.08830299 62679,6917.91,95.438,540.582,538.968,0.0
52138.0,STARLINK-3723,PAYLOAD,2023-04-27 04:56:51,15.08839598,0.000107,53.2161,91.4535,85.7727,274.3387,3.0243e-05,1.94e-06,0.0,0 STARLINK-3723,1 52138U 22029BC  23117.20615106  .00000194  00000-0  30243-4 0  9999,2 52138  53.2161  91.4535 0001070  85.7727 274.3387 15.08839598 62806,6917.882,95.438,540.487,539.006,0.0
52138.0,STARLINK-3723,PAYLOAD,2023-04-28 07:58:24,15.08840044,0.0001109,53.2163,86.3974,95.3965,264.7154,0.00015011,2.102e-05,0.0,0 STARLINK-3723,1 52138U 22029BC  23118.33222917  .00002102  00000-0  15011-3 0  9994,2 52138  53.2163  86.3974 0001109  95.3965 264.7154 15.08840044 62973,6917.88,95.438,540.512,538.978,0.0
52138.0,STARLINK-3723,PAYLOAD,2023-04-28 14:19:57,15.08833997,0.0001061,53.2166,85.2067,92.6709,267.4404,9.3743e-05,1.204e-05,0.0,0 STARLINK-3723,1 52138U 22029BC  23118.59719522  .00001204  00000-0  93743-4 0  9996,2 52138  53.2166  85.2067 0001061  92.6709 267.4404 15.08833997 63013,6917.899,95.438,540.498,539.03,0.0
52138.0,STARLINK-3723,PAYLOAD,2023-04-29 04:38:26,15.08836978,0.0001057,53.2172,82.5339,95.1333,264.978,-1.6431e-05,-5.49e-06,0.0,0 STARLINK-3723,1 52138U 22029BC  23119.19335854 -.00000549  00000-0 -16431-4 0  9997,2 52138  53.2172  82.5339 0001057  95.1333 264.9780 15.08836978 63109,6917.89,95.438,540.486,539.023,0.0
52138.0,STARLINK-3723,PAYLOAD,2023-04-30 01:18:27,15.08835157,0.0001103,53.2177,78.6681,98.4277,261.684,-7.7616e-06,-4.11e-06,0.0,0 STARLINK-3723,1 52138U 22029BC  23120.05448127 -.00000411  00000-0 -77616-5 0  9993,2 52138  53.2177  78.6681 0001103  98.4277 261.6840 15.08835157 63238,6917.895,95.438,540.523,538.997,0.0
52138.0,STARLINK-3723,PAYLOAD,2023-04-30 07:39:59,15.08840311,0.0001082,53.2173,77.4778,94.1278,265.9838,2.8414e-05,1.64e-06,0.0,0 STARLINK-3723,1 52138U 22029BC  23120.31943749  .00000164  00000-0  28414-4 0  9996,2 52138  53.2173  77.4778 0001082  94.1278 265.9838 15.08840311 63274,6917.879,95.438,540.493,538.996,0.0
52138.0,STARLINK-3723,PAYLOAD,2023-05-01 12:16:56,15.08837463,0.0001029,53.2174,72.1244,86.7823,273.3287,6.4022e-05,7.31e-06,0.0,0 STARLINK-3723,1 52138U 22029BC  23121.51176199  .00000731  00000-0  64022-4 0  9991,2 52138  53.2174  72.1244 0001029  86.7823 273.3287 15.08837463 63454,6917.888,95.438,540.465,539.041,0.0
52138.0,STARLINK-3723,PAYLOAD,2023-05-02 13:43:06,15.08833326,0.0001207,53.2179,67.3664,86.2204,273.8926,0.00020582,2.989e-05,0.0,0 STARLINK-3723,1 52138U 22029BC  23122.57160248  .00002989  00000-0  20582-3 0  9995,2 52138  53.2179  67.3664 0001207  86.2204 273.8926 15.08833326 63614,6917.901,95.438,540.601,538.931,0.0
52138.0,STARLINK-3723,PAYLOAD,2023-05-02 20:04:38,15.08840888,0.00012,53.217,66.1777,83.7283,276.3846,8.0217e-05,9.89e-06,0.0,0 STARLINK-3723,1 52138U 22029BC  23122.83656026  .00000989  00000-0  80217-4 0  9998,2 52138  53.2170  66.1777 0001200  83.7283 276.3846 15.08840888 63653,6917.878,95.437,540.573,538.913,0.0
52138.0,STARLINK-3723,PAYLOAD,2023-05-03 02:26:11,15.08846103,9.79e-05,53.2167,64.9872,89.3327,270.7777,6.4599e-05,7.41e-06,0.0,0 STARLINK-3723,1 52138U 22029BC  23123.10151644  .00000741  00000-0  64599-4 0  9996,2 52138  53.2167  64.9872 0000979  89.3327 270.7777 15.08846103 63695,6917.862,95.437,540.404,539.049,0.0
52138.0,STARLINK-3723,PAYLOAD,2023-05-03 05:36:57,15.08846992,9.84e-05,53.2169,64.3924,91.014,269.0965,6.9931e-05,8.26e-06,0.0,0 STARLINK-3723,1 52138U 22029BC  23123.23399553  .00000826  00000-0  69931-4 0  9992,2 52138  53.2169  64.3924 0000984  91.0140 269.0965 15.08846992 63717,6917.859,95.437,540.405,539.043,0.0
52138.0,STARLINK-3723,PAYLOAD,2023-05-04 02:16:58,15.08840187,0.0001035,53.2169,60.527,83.3329,276.7781,-7.8905e-06,-4.13e-06,0.0,0 STARLINK-3723,1 52138U 22029BC  23124.09512280 -.00000413  00000-0 -78905-5 0  9997,2 52138  53.2169  60.5270 0001035  83.3329 276.7781 15.08840187 63845,6917.88,95.438,540.461,539.029,0.0
52138.0,STARLINK-3723,PAYLOAD,2023-05-04 05:27:44,15.0884143,0.000104,53.2169,59.9322,82.8472,277.2639,3.5444e-06,-2.31e-06,0.0,0 STARLINK-3723,1 52138U 22029BC  23124.22760163 -.00000231  00000-0  35444-5 0  9995,2 52138  53.2169  59.9322 0001040  82.8472 277.2639 15.08841430 63866,6917.876,95.437,540.46,539.022,0.0
52138.0,STARLINK-3723,PAYLOAD,2023-05-05 03:43:06,15.08865268,9.94e-05,53.2166,55.7689,88.1263,271.9842,0.0002004,2.905e-05,0.0,0 STARLINK-3723,1 52138U 22029BC  23125.15493767  .00002905  00000-0  20040-3 0  9994,2 52138  53.2166  55.7689 0000994  88.1263 271.9842 15.08865268 64006,6917.803,95.436,540.356,538.981,0.0
